IRIDIUM 126             
1 42809U 17039G   24019.92577471  .00000387  00000+0  13104-3 0  9990
2 42809  86.3983   1.0873 0002401  82.2270 277.9199 14.34216649343924
IRIDIUM 124             
1 42810U 17039H   24019.79864640  .00000827  00000+0  23991-3 0  9998
2 42810  86.4501 297.8977 0001884  86.6032 273.5384 14.43293108348277
IRIDIUM 128             
1 42811U 17039J   24019.56766621  .00000298  00000+0  99381-4 0  9993
2 42811  86.3953  32.7497 0002156  87.4691 272.6751 14.34218683343902
IRIDIUM 121             
1 42812U 17039K   24019.94480248  .00000552  00000+0  19019-3 0  9996
2 42812  86.3983   1.1013 0002266  88.4749 271.6706 14.34218364343801
IRIDIUM 133             
1 42955U 17061A   24019.94822880  .00000287  00000+0  95310-4 0  9995
2 42955  86.3954  32.6866 0002335  88.8380 271.3083 14.34217598328754
IRIDIUM 100             
1 42956U 17061B   24019.94188587  .00000289  00000+0  96235-4 0  9994
2 42956  86.3952  32.6284 0002176  89.2736 270.8709 14.34215589328757
IRIDIUM 122             
1 42957U 17061C   24019.97993326  .00000314  00000+0  10490-3 0  9990
2 42957  86.3953  32.6105 0002143  86.1827 273.9614 14.34217108328761
IRIDIUM 129             
1 42958U 17061D   24019.51693265  .00000293  00000+0  97700-4 0  9996
2 42958  86.3954  32.8621 0002241  86.2075 273.9376 14.34217742328717
